{
    "links": {
        "self": "http://www.neowsapp.com/rest/v1/neo/3182184?api_key=iIulBulltgU6a56xZRHN4H3l9WmuAYTsLGpBGhQ2"
    },
    "id": "3182184",
    "neo_reference_id": "3182184",
    "name": "(2004 JU20)",
    "designation": "2004 JU20",
    "nasa_jpl_url": "http://ssd.jpl.nasa.gov/sbdb.cgi?sstr=3182184",
    "absolute_magnitude_h": 25.3,
    "estimated_diameter": {
        "kilometers": {
            "estimated_diameter_min": 0.0231502122,
            "estimated_diameter_max": 0.0517654482
        },
        "meters": {
            "estimated_diameter_min": 23.150212221,
            "estimated_diameter_max": 51.7654482198
        },
        "miles": {
            "estimated_diameter_min": 0.0143848705,
            "estimated_diameter_max": 0.0321655483
        },
        "feet": {
            "estimated_diameter_min": 75.9521422633,
            "estimated_diameter_max": 169.8341531374
        }
    },
    "is_potentially_hazardous_asteroid": false,
    "close_approach_data": [
        {
            "close_approach_date": "2004-04-15",
            "close_approach_date_full": "2004-Apr-15 13:32",
            "epoch_date_close_approach": 1082035920000,
            "relative_velocity": {
                "kilometers_per_second": "3.6732820064",
                "kilometers_per_hour": "13223.8152231097",
                "miles_per_hour": "8216.7645201594"
            },
            "miss_distance": {
                "astronomical": "0.1008246793",
                "lunar": "39.2208002477",
                "kilometers": "15083157.266713091",
                "miles": "9372239.3290230158"
            },
            "orbiting_body": "Earth"
        }
    ],
    "orbital_data": {
        "orbit_id": "6",
        "orbit_determination_date": "2017-04-06 09:12:46",
        "first_observation_date": "2004-05-13",
        "last_observation_date": "2004-05-16",
        "data_arc_in_days": 3,
        "observations_used": 8,
        "orbit_uncertainty": "9",
        "minimum_orbit_intersection": ".0984829",
        "jupiter_tisserand_invariant": "4.508",
        "epoch_osculation": "2453139.5",
        "eccentricity": ".2752068125000933",
        "semi_major_axis": "1.494112204682",
        "inclination": "5.596565019942163",
        "ascending_node_longitude": "52.55604884195644",
        "orbital_period": "667.0728218750538",
        "perihelion_distance": "1.08292234731398",
        "perihelion_argument": "138.6153087183991",
        "aphelion_distance": "1.90530206205002",
        "perihelion_time": "2453095.061418365428",
        "mean_anomaly": "23.98222332530047",
        "mean_motion": ".5396712145880677",
        "equinox": "J2000",
        "orbit_class": {
            "orbit_class_type": "AMO",
            "orbit_class_description": "Near-Earth asteroid orbits similar to that of 1221 Amor",
            "orbit_class_range": "1.017 AU < q (perihelion) < 1.3 AU"
        }
    },
    "is_sentry_object": false
}